[{"OBJECT_NAME":"ONEWEB-0207","OBJECT_ID":"2021-031AJ","EPOCH":"2026-05-19T04:15:19.229760","MEAN_MOTION":13.14503872,"ECCENTRICITY":0.0001927,"INCLINATION":87.8938,"RA_OF_ASC_NODE":295.484,"ARG_OF_PERICENTER":104.9728,"MEAN_ANOMALY":255.1615,"EPHEMERIS_TYPE":0,"CLASSIFICATION_TYPE":"U","NORAD_CAT_ID":48242,"ELEMENT_SET_NO":999,"REV_AT_EPOCH":24448,"BSTAR":0.00024344,"MEAN_MOTION_DOT":1.03e-06,"MEAN_MOTION_DDOT":0.0},{"OBJECT_NAME":"ONEWEB-0208","OBJECT_ID":"2021-031AK","EPOCH":"2026-05-19T03:49:04.992384","MEAN_MOTION":13.14503629,"ECCENTRICITY":0.0001445,"INCLINATION":87.8934,"RA_OF_ASC_NODE":295.4951,"ARG_OF_PERICENTER":98.8677,"MEAN_ANOMALY":261.2617,"EPHEMERIS_TYPE":0,"CLASSIFICATION_TYPE":"U","NORAD_CAT_ID":48243,"ELEMENT_SET_NO":999,"REV_AT_EPOCH":24449,"BSTAR":-0.0005252799999999999,"MEAN_MOTION_DOT":-1.82e-06,"MEAN_MOTION_DDOT":0.0},{"OBJECT_NAME":"ONEWEB-0200","OBJECT_ID":"2021-031AL","EPOCH":"2026-05-19T02:56:32.350560","MEAN_MOTION":13.14503991,"ECCENTRICITY":0.0001716,"INCLINATION":87.8938,"RA_OF_ASC_NODE":295.4892,"ARG_OF_PERICENTER":99.9528,"MEAN_ANOMALY":260.1795,"EPHEMERIS_TYPE":0,"CLASSIFICATION_TYPE":"U","NORAD_CAT_ID":48244,"ELEMENT_SET_NO":999,"REV_AT_EPOCH":24441,"BSTAR":0.00041289,"MEAN_MOTION_DOT":1.66e-06,"MEAN_MOTION_DDOT":0.0},{"OBJECT_NAME":"ONEWEB-0217","OBJECT_ID":"2021-031AM","EPOCH":"2026-05-19T03:19:22.569024","MEAN_MOTION":13.14504165,"ECCENTRICITY":0.000145,"INCLINATION":87.8941,"RA_OF_ASC_NODE":295.4894,"ARG_OF_PERICENTER":100.7202,"MEAN_ANOMALY":259.4091,"EPHEMERIS_TYPE":0,"CLASSIFICATION_TYPE":"U","NORAD_CAT_ID":48245,"ELEMENT_SET_NO":999,"REV_AT_EPOCH":24436,"BSTAR":-0.00037635999999999995,"MEAN_MOTION_DOT":-1.27e-06,"MEAN_MOTION_DDOT":0.0},{"OBJECT_NAME":"ONEWEB-0211","OBJECT_ID":"2021-045A","EPOCH":"2026-05-19T07:16:50.118240","MEAN_MOTION":13.16194886,"ECCENTRICITY":0.0001184,"INCLINATION":87.8986,"RA_OF_ASC_NODE":264.8436,"ARG_OF_PERICENTER":97.2006,"MEAN_ANOMALY":262.926,"EPHEMERIS_TYPE":0,"CLASSIFICATION_TYPE":"U","NORAD_CAT_ID":48767,"ELEMENT_SET_NO":999,"REV_AT_EPOCH":24064,"BSTAR":-0.00010211000000000001,"MEAN_MOTION_DOT":-2.6e-07,"MEAN_MOTION_DDOT":0.0},{"OBJECT_NAME":"ONEWEB-0223","OBJECT_ID":"2021-045B","EPOCH":"2026-05-19T06:59:44.075904","MEAN_MOTION":13.15549491,"ECCENTRICITY":0.0001533,"INCLINATION":87.8993,"RA_OF_ASC_NODE":264.9466,"ARG_OF_PERICENTER":90.9716,"MEAN_ANOMALY":269.159,"EPHEMERIS_TYPE":0,"CLASSIFICATION_TYPE":"U","NORAD_CAT_ID":48768,"ELEMENT_SET_NO":999,"REV_AT_EPOCH":24060,"BSTAR":-0.0002701,"MEAN_MOTION_DOT":-8.9e-07,"MEAN_MOTION_DDOT":0.0},{"OBJECT_NAME":"ONEWEB-0230","OBJECT_ID":"2021-045C","EPOCH":"2026-05-19T06:18:38.083392","MEAN_MOTION":13.15552723,"ECCENTRICITY":0.0002036,"INCLINATION":87.8989,"RA_OF_ASC_NODE":264.969,"ARG_OF_PERICENTER":100.7149,"MEAN_ANOMALY":259.4211,"EPHEMERIS_TYPE":0,"CLASSIFICATION_TYPE":"U","NORAD_CAT_ID":48769,"ELEMENT_SET_NO":999,"REV_AT_EPOCH":24086,"BSTAR":0.00042204000000000005,"MEAN_MOTION_DOT":1.72e-06,"MEAN_MOTION_DDOT":0.0},{"OBJECT_NAME":"ONEWEB-0237","OBJECT_ID":"2021-045D","EPOCH":"2026-05-19T07:52:13.245312","MEAN_MOTION":13.15549341,"ECCENTRICITY":0.0001772,"INCLINATION":87.8982,"RA_OF_ASC_NODE":264.9576,"ARG_OF_PERICENTER":91.8999,"MEAN_ANOMALY":268.2335,"EPHEMERIS_TYPE":0,"CLASSIFICATION_TYPE":"U","NORAD_CAT_ID":48770,"ELEMENT_SET_NO":999,"REV_AT_EPOCH":24059,"BSTAR":0.00028834,"MEAN_MOTION_DOT":1.21e-06,"MEAN_MOTION_DDOT":0.0},{"OBJECT_NAME":"ONEWEB-0235","OBJECT_ID":"2021-045E","EPOCH":"2026-05-19T07:15:40.863456","MEAN_MOTION":13.15546479,"ECCENTRICITY":0.0001598,"INCLINATION":87.8991,"RA_OF_ASC_NODE":264.9454,"ARG_OF_PERICENTER":88.8454,"MEAN_ANOMALY":271.2859,"EPHEMERIS_TYPE":0,"CLASSIFICATION_TYPE":"U","NORAD_CAT_ID":48771,"ELEMENT_SET_NO":999,"REV_AT_EPOCH":24058,"BSTAR":-0.00031159,"MEAN_MOTION_DOT":-1.04e-06,"MEAN_MOTION_DDOT":0.0},{"OBJECT_NAME":"ONEWEB-0242","OBJECT_ID":"2021-045F","EPOCH":"2026-05-19T07:06:34.056864","MEAN_MOTION":13.15547041,"ECCENTRICITY":0.0001898,"INCLINATION":87.8993,"RA_OF_ASC_NODE":264.9431,"ARG_OF_PERICENTER":94.0436,"MEAN_ANOMALY":266.0912,"EPHEMERIS_TYPE":0,"CLASSIFICATION_TYPE":"U","NORAD_CAT_ID":48772,"ELEMENT_SET_NO":999,"REV_AT_EPOCH":24062,"BSTAR":-0.00027693,"MEAN_MOTION_DOT":-9.1e-07,"MEAN_MOTION_DDOT":0.0},{"OBJECT_NAME":"ONEWEB-0241","OBJECT_ID":"2021-045G","EPOCH":"2026-05-19T06:48:18.434016","MEAN_MOTION":13.1554766,"ECCENTRICITY":0.0001464,"INCLINATION":87.8981,"RA_OF_ASC_NODE":264.9675,"ARG_OF_PERICENTER":97.3545,"MEAN_ANOMALY":262.7752,"EPHEMERIS_TYPE":0,"CLASSIFICATION_TYPE":"U","NORAD_CAT_ID":48773,"ELEMENT_SET_NO":999,"REV_AT_EPOCH":24053,"BSTAR":-0.00029925000000000004,"MEAN_MOTION_DOT":-1e-06,"MEAN_MOTION_DDOT":0.0},{"OBJECT_NAME":"ONEWEB-0243","OBJECT_ID":"2021-045H","EPOCH":"2026-05-19T02:05:23.049312","MEAN_MOTION":13.15550042,"ECCENTRICITY":0.0002004,"INCLINATION":87.8981,"RA_OF_ASC_NODE":265.0184,"ARG_OF_PERICENTER":84.2695,"MEAN_ANOMALY":275.8664,"EPHEMERIS_TYPE":0,"CLASSIFICATION_TYPE":"U","NORAD_CAT_ID":48774,"ELEMENT_SET_NO":999,"REV_AT_EPOCH":24053,"BSTAR":-6.5492e-05,"MEAN_MOTION_DOT":-1.2e-07,"MEAN_MOTION_DDOT":0.0},{"OBJECT_NAME":"ONEWEB-0222","OBJECT_ID":"2021-045J","EPOCH":"2026-05-19T07:09:58.690080","MEAN_MOTION":13.15549057,"ECCENTRICITY":0.0001641,"INCLINATION":87.8992,"RA_OF_ASC_NODE":264.9414,"ARG_OF_PERICENTER":96.6257,"MEAN_ANOMALY":263.506,"EPHEMERIS_TYPE":0,"CLASSIFICATION_TYPE":"U","NORAD_CAT_ID":48775,"ELEMENT_SET_NO":999,"REV_AT_EPOCH":24060,"BSTAR":-0.0015520999999999998,"MEAN_MOTION_DOT":-5.71e-06,"MEAN_MOTION_DDOT":0.0},{"OBJECT_NAME":"ONEWEB-0244","OBJECT_ID":"2021-045K","EPOCH":"2026-05-19T07:47:38.147712","MEAN_MOTION":13.15549695,"ECCENTRICITY":0.0001835,"INCLINATION":87.8996,"RA_OF_ASC_NODE":264.9293,"ARG_OF_PERICENTER":95.9969,"MEAN_ANOMALY":264.1371,"EPHEMERIS_TYPE":0,"CLASSIFICATION_TYPE":"U","NORAD_CAT_ID":48776,"ELEMENT_SET_NO":999,"REV_AT_EPOCH":24117,"BSTAR":0.00020831,"MEAN_MOTION_DOT":9.1e-07,"MEAN_MOTION_DDOT":0.0},{"OBJECT_NAME":"ONEWEB-0247","OBJECT_ID":"2021-045L","EPOCH":"2026-05-19T07:43:05.477952","MEAN_MOTION":13.15549377,"ECCENTRICITY":0.000177,"INCLINATION":87.8985,"RA_OF_ASC_NODE":264.9664,"ARG_OF_PERICENTER":73.0422,"MEAN_ANOMALY":287.0902,"EPHEMERIS_TYPE":0,"CLASSIFICATION_TYPE":"U","NORAD_CAT_ID":48777,"ELEMENT_SET_NO":999,"REV_AT_EPOCH":24061,"BSTAR":0.00012204,"MEAN_MOTION_DOT":5.9e-07,"MEAN_MOTION_DDOT":0.0},{"OBJECT_NAME":"ONEWEB-0245","OBJECT_ID":"2021-045M","EPOCH":"2026-05-19T02:07:40.515168","MEAN_MOTION":13.15548667,"ECCENTRICITY":0.0001646,"INCLINATION":87.899,"RA_OF_ASC_NODE":264.9892,"ARG_OF_PERICENTER":102.0218,"MEAN_ANOMALY":258.1097,"EPHEMERIS_TYPE":0,"CLASSIFICATION_TYPE":"U","NORAD_CAT_ID":48778,"ELEMENT_SET_NO":999,"REV_AT_EPOCH":24055,"BSTAR":-0.00018714,"MEAN_MOTION_DOT":-5.8e-07,"MEAN_MOTION_DDOT":0.0}]