ONEWEB-0207             
1 48242U 21031AJ  26139.17730590  .00000103  00000+0  24344-3 0  9993
2 48242  87.8938 295.4840 0001927 104.9728 255.1615 13.14503872244488
ONEWEB-0208             
1 48243U 21031AK  26139.15908556 -.00000182  00000+0 -52528-3 0  9995
2 48243  87.8934 295.4951 0001445  98.8677 261.2617 13.14503629244498
ONEWEB-0200             
1 48244U 21031AL  26139.12259665  .00000166  00000+0  41289-3 0  9995
2 48244  87.8938 295.4892 0001716  99.9528 260.1795 13.14503991244414
ONEWEB-0217             
1 48245U 21031AM  26139.13845566 -.00000127  00000+0 -37636-3 0  9998
2 48245  87.8941 295.4894 0001450 100.7202 259.4091 13.14504165244364
ONEWEB-0211             
1 48767U 21045A   26139.30335785 -.00000026  00000+0 -10211-3 0  9996
2 48767  87.8986 264.8436 0001184  97.2006 262.9260 13.16194886240641
ONEWEB-0223             
1 48768U 21045B   26139.29148236 -.00000089  00000+0 -27010-3 0  9992
2 48768  87.8993 264.9466 0001533  90.9716 269.1590 13.15549491240606
ONEWEB-0230             
1 48769U 21045C   26139.26294078  .00000172  00000+0  42204-3 0  9999
2 48769  87.8989 264.9690 0002036 100.7149 259.4211 13.15552723240862
ONEWEB-0237             
1 48770U 21045D   26139.32793108  .00000121  00000+0  28834-3 0  9993
2 48770  87.8982 264.9576 0001772  91.8999 268.2335 13.15549341240596
ONEWEB-0235             
1 48771U 21045E   26139.30255629 -.00000104  00000+0 -31159-3 0  9990
2 48771  87.8991 264.9454 0001598  88.8454 271.2859 13.15546479240583
ONEWEB-0242             
1 48772U 21045F   26139.29622751 -.00000091  00000+0 -27693-3 0  9996
2 48772  87.8993 264.9431 0001898  94.0436 266.0912 13.15547041240626
ONEWEB-0241             
1 48773U 21045G   26139.28354669 -.00000100  00000+0 -29925-3 0  9997
2 48773  87.8981 264.9675 0001464  97.3545 262.7752 13.15547660240532
ONEWEB-0243             
1 48774U 21045H   26139.08707233 -.00000012  00000+0 -65492-4 0  9997
2 48774  87.8981 265.0184 0002004  84.2695 275.8664 13.15550042240537
ONEWEB-0222             
1 48775U 21045J   26139.29859595 -.00000571  00000+0 -15521-2 0  9996
2 48775  87.8992 264.9414 0001641  96.6257 263.5060 13.15549057240607
ONEWEB-0244             
1 48776U 21045K   26139.32474708  .00000091  00000+0  20831-3 0  9996
2 48776  87.8996 264.9293 0001835  95.9969 264.1371 13.15549695241177
ONEWEB-0247             
1 48777U 21045L   26139.32159118  .00000059  00000+0  12204-3 0  9991
2 48777  87.8985 264.9664 0001770  73.0422 287.0902 13.15549377240616
ONEWEB-0245             
1 48778U 21045M   26139.08866337 -.00000058  00000+0 -18714-3 0  9996
2 48778  87.8990 264.9892 0001646 102.0218 258.1097 13.15548667240552
